NORAD_CAT_ID,OBJECT_NAME,OBJECT_TYPE,EPOCH,MEAN_MOTION,ECCENTRICITY,INCLINATION,RA_OF_ASC_NODE,ARG_OF_PERICENTER,MEAN_ANOMALY,BSTAR,MEAN_MOTION_DOT,MEAN_MOTION_DDOT,TLE_LINE0,TLE_LINE1,TLE_LINE2,SEMIMAJOR_AXIS,PERIOD,APOGEE,PERIGEE,DECAYED
53985.0,STARLINK-5147,PAYLOAD,2024-03-01 22:29:09,15.08899058,0.0001166,53.2178,286.2538,90.1256,269.9869,-0.00067807,-0.00011081,0.0,0 STARLINK-5147,1 53985U 22125X   24061.93691944 -.00011081  00000-0 -67807-3 0  9994,2 53985  53.2178 286.2538 0001166  90.1256 269.9869 15.08899058 78152,6917.7,95.434,540.371,538.758,0.0
53985.0,STARLINK-5147,PAYLOAD,2024-03-02 19:09:12,15.08839662,0.0001415,53.2173,282.3874,85.0624,275.053,0.00012161,1.648e-05,0.0,0 STARLINK-5147,1 53985U 22125X   24062.79806369  .00001648  00000-0  12161-3 0  9997,2 53985  53.2173 282.3874 0001415  85.0624 275.0530 15.08839662 78288,6917.881,95.438,540.725,538.768,0.0
53985.0,STARLINK-5147,PAYLOAD,2024-03-02 22:19:58,15.08843935,0.0001309,53.2166,281.7923,84.8146,275.2995,8.8663e-05,1.124e-05,0.0,0 STARLINK-5147,1 53985U 22125X   24062.93054089  .00001124  00000-0  88663-4 0  9997,2 53985  53.2166 281.7923 0001309  84.8146 275.2995 15.08843935 78236,6917.868,95.437,540.639,538.828,0.0
53985.0,STARLINK-5147,PAYLOAD,2024-03-03 07:52:17,15.08843596,0.0001242,53.2166,280.0079,89.9714,270.1421,7.2211e-05,8.62e-06,0.0,0 STARLINK-5147,1 53985U 22125X   24063.32798067  .00000862  00000-0  72211-4 0  9992,2 53985  53.2166 280.0079 0001242  89.9714 270.1421 15.08843596 78290,6917.869,95.437,540.594,538.875,0.0
53985.0,STARLINK-5147,PAYLOAD,2024-03-03 18:59:59,15.08844047,0.0001215,53.2168,277.9263,89.959,270.1542,5.9267e-05,6.56e-06,0.0,0 STARLINK-5147,1 53985U 22125X   24063.79165959  .00000656  00000-0  59267-4 0  9998,2 53985  53.2168 277.9263 0001215  89.9590 270.1542 15.08844047 78368,6917.868,95.437,540.574,538.892,0.0
53985.0,STARLINK-5147,PAYLOAD,2024-03-03 20:35:22,15.08845667,0.000123,53.2166,277.6289,90.4725,269.6408,5.0099e-05,5.1e-06,0.0,0 STARLINK-5147,1 53985U 22125X   24063.85789835  .00000510  00000-0  50099-4 0  9993,2 53985  53.2166 277.6289 0001230  90.4725 269.6408 15.08845667 78447,6917.863,95.437,540.579,538.877,0.0
53985.0,STARLINK-5147,PAYLOAD,2024-03-04 20:26:08,15.08849837,0.0001247,53.2163,273.1684,93.615,266.4985,0.00010644,1.407e-05,0.0,0 STARLINK-5147,1 53985U 22125X   24064.85149078  .00001407  00000-0  10644-3 0  9990,2 53985  53.2163 273.1684 0001247  93.6150 266.4985 15.08849837 78526,6917.85,95.437,540.578,538.853,0.0
53985.0,STARLINK-5147,PAYLOAD,2024-03-05 13:55:24,15.08838538,0.0001377,53.2165,269.898,92.9454,267.1696,2.9731e-05,1.85e-06,0.0,0 STARLINK-5147,1 53985U 22125X   24065.58014102  .00000185  00000-0  29731-4 0  9990,2 53985  53.2165 269.8980 0001377  92.9454 267.1696 15.08838538 78637,6917.885,95.438,540.702,538.797,0.0
53985.0,STARLINK-5147,PAYLOAD,2024-03-05 20:16:56,15.08834169,0.0001318,53.2161,268.7086,89.2854,270.8289,-6.1667e-05,-1.269e-05,0.0,0 STARLINK-5147,1 53985U 22125X   24065.84510210 -.00001269  00000-0 -61667-4 0  9990,2 53985  53.2161 268.7086 0001318  89.2854 270.8289 15.08834169 78743,6917.898,95.438,540.675,538.851,0.0
53985.0,STARLINK-5147,PAYLOAD,2024-03-06 13:46:11,15.08836125,0.0001239,53.2158,265.4379,94.4468,265.6666,-3.5928e-05,-8.6e-06,0.0,0 STARLINK-5147,1 53985U 22125X   24066.57374262 -.00000860  00000-0 -35928-4 0  9993,2 53985  53.2158 265.4379 0001239  94.4468 265.6666 15.08836125 78788,6917.892,95.438,540.614,538.9,0.0
53985.0,STARLINK-5147,PAYLOAD,2024-03-06 20:07:43,15.08843606,0.0001224,53.2164,264.2498,95.5788,264.5344,4.9015e-05,4.92e-06,0.0,0 STARLINK-5147,1 53985U 22125X   24066.83869972  .00000492  00000-0  49015-4 0  9990,2 53985  53.2164 264.2498 0001224  95.5788 264.5344 15.08843606 78890,6917.869,95.437,540.581,538.888,0.0
53985.0,STARLINK-5147,PAYLOAD,2024-03-07 05:40:02,15.08841748,0.0001199,53.2163,262.4656,94.7094,265.4035,5.0048e-05,5.09e-06,0.0,0 STARLINK-5147,1 53985U 22125X   24067.23614160  .00000509  00000-0  50048-4 0  9999,2 53985  53.2163 262.4656 0001199  94.7094 265.4035 15.08841748 78888,6917.875,95.437,540.569,538.911,0.0
53985.0,STARLINK-5147,PAYLOAD,2024-03-08 05:30:50,15.08839104,0.0001321,53.2172,258.0063,100.1215,259.9926,0.0001546,2.173e-05,0.0,0 STARLINK-5147,1 53985U 22125X   24068.22974716  .00002173  00000-0  15460-3 0  9992,2 53985  53.2172 258.0063 0001321 100.1215 259.9926 15.08839104 79101,6917.883,95.438,540.662,538.834,0.0
53985.0,STARLINK-5147,PAYLOAD,2024-03-08 21:24:40,15.08856451,0.0001305,53.216,255.0318,91.8621,268.2521,0.0002658,3.947e-05,0.0,0 STARLINK-5147,1 53985U 22125X   24068.89213447  .00003947  00000-0  26580-3 0  9997,2 53985  53.2160 255.0318 0001305  91.8621 268.2521 15.08856451 79138,6917.83,95.437,540.598,538.792,0.0
53985.0,STARLINK-5147,PAYLOAD,2024-03-08 23:00:03,15.0885858,0.000128,53.2156,254.7328,85.0345,275.0793,0.00028815,4.303e-05,0.0,0 STARLINK-5147,1 53985U 22125X   24068.95837294  .00004303  00000-0  28815-3 0  9996,2 53985  53.2156 254.7328 0001280  85.0345 275.0793 15.08858580 79211,6917.824,95.436,540.574,538.803,0.0
53985.0,STARLINK-5147,PAYLOAD,2024-03-09 11:43:09,15.08837007,0.0001724,53.2156,252.3541,88.389,271.73,5.8415e-05,6.42e-06,0.0,0 STARLINK-5147,1 53985U 22125X   24069.48830620  .00000642  00000-0  58415-4 0  9993,2 53985  53.2156 252.3541 0001724  88.3890 271.7300 15.08837007 79292,6917.89,95.438,540.947,538.562,0.0
53985.0,STARLINK-5147,PAYLOAD,2024-03-10 11:33:56,15.08837315,0.0001501,53.213,247.8938,89.9148,270.2016,-2.4865e-05,-6.84e-06,0.0,0 STARLINK-5147,1 53985U 22125X   24070.48190612 -.00000684  00000-0 -24865-4 0  9995,2 53985  53.2130 247.8938 0001501  89.9148 270.2016 15.08837315 79378,6917.889,95.438,540.792,538.715,0.0
53985.0,STARLINK-5147,PAYLOAD,2024-03-10 17:55:29,15.0883754,0.0001339,53.2118,246.7045,91.3366,268.778,3.7769e-05,3.13e-06,0.0,0 STARLINK-5147,1 53985U 22125X   24070.74686640  .00000313  00000-0  37769-4 0  9999,2 53985  53.2118 246.7045 0001339  91.3366 268.7780 15.08837540 79481,6917.888,95.438,540.679,538.827,0.0
53985.0,STARLINK-5147,PAYLOAD,2024-03-11 13:00:07,15.08839276,0.0001345,53.2135,243.1356,94.4325,265.682,0.00026276,3.896e-05,0.0,0 STARLINK-5147,1 53985U 22125X   24071.54174969  .00003896  00000-0  26276-3 0  9993,2 53985  53.2135 243.1356 0001345  94.4325 265.6820 15.08839276 79537,6917.883,95.438,540.678,538.817,0.0
53985.0,STARLINK-5147,PAYLOAD,2024-03-12 11:15:31,15.08843295,0.0001363,53.2149,238.9736,87.5156,272.5992,0.00018506,2.659e-05,0.0,0 STARLINK-5147,1 53985U 22125X   24072.46910905  .00002659  00000-0  18506-3 0  9996,2 53985  53.2149 238.9736 0001363  87.5156 272.5992 15.08843295 79747,6917.87,95.437,540.678,538.792,0.0
53985.0,STARLINK-5147,PAYLOAD,2024-03-12 17:37:03,15.08845181,0.0001353,53.2148,237.7838,89.3846,270.7301,0.00018857,2.715e-05,0.0,0 STARLINK-5147,1 53985U 22125X   24072.73406792  .00002715  00000-0  18857-3 0  9992,2 53985  53.2148 237.7838 0001353  89.3846 270.7301 15.08845181 79718,6917.865,95.437,540.666,538.794,0.0
53985.0,STARLINK-5147,PAYLOAD,2024-03-13 11:06:17,15.08848823,0.0001311,53.2187,234.5137,89.387,270.7273,0.00020973,3.052e-05,0.0,0 STARLINK-5147,1 53985U 22125X   24073.46270367  .00003052  00000-0  20973-3 0  9997,2 53985  53.2187 234.5137 0001311  89.3870 270.7273 15.08848823 79825,6917.853,95.437,540.625,538.811,0.0
53985.0,STARLINK-5147,PAYLOAD,2024-03-13 17:27:49,15.08860765,0.0001354,53.2172,233.3245,89.7313,270.3835,0.00035674,5.397e-05,0.0,0 STARLINK-5147,1 53985U 22125X   24073.72765645  .00005397  00000-0  35674-3 0  9992,2 53985  53.2172 233.3245 0001354  89.7313 270.3835 15.08860765 79930,6917.817,95.436,540.619,538.745,0.0
53985.0,STARLINK-5147,PAYLOAD,2024-03-15 10:47:52,15.08838127,6.68e-05,53.2155,225.5915,34.8775,325.2261,6.6604e-05,7.73e-06,0.0,0 STARLINK-5147,1 53985U 22125X   24075.44990765  .00000773  00000-0  66604-4 0  9997,2 53985  53.2155 225.5915 0000668  34.8775 325.2261 15.08838127 80198,6917.886,95.438,540.213,539.289,0.0
53985.0,STARLINK-5147,PAYLOAD,2024-03-16 13:49:26,15.08831272,7.24e-05,53.2166,220.5386,51.6829,308.4228,7.1522e-05,8.51e-06,0.0,0 STARLINK-5147,1 53985U 22125X   24076.57599600  .00000851  00000-0  71522-4 0  9997,2 53985  53.2166 220.5386 0000724  51.6829 308.4228 15.08831272 80298,6917.907,95.438,540.273,539.271,0.0
53985.0,STARLINK-5147,PAYLOAD,2024-03-16 18:35:35,15.08834687,0.0001283,53.2158,219.6404,79.9291,280.1845,0.00019225,2.773e-05,0.0,0 STARLINK-5147,1 53985U 22125X   24076.77471538  .00002773  00000-0  19225-3 0  9994,2 53985  53.2158 219.6404 0001283  79.9291 280.1845 15.08834687 80391,6917.897,95.438,540.649,538.874,0.0
53985.0,STARLINK-5147,PAYLOAD,2024-03-17 13:40:13,15.08839622,0.000128,53.2159,216.072,79.8172,280.2964,0.00019214,2.771e-05,0.0,0 STARLINK-5147,1 53985U 22125X   24077.56959560  .00002771  00000-0  19214-3 0  9994,2 53985  53.2159 216.0720 0001280  79.8172 280.2964 15.08839622 80441,6917.882,95.438,540.632,538.861,0.0
53985.0,STARLINK-5147,PAYLOAD,2024-03-17 18:26:22,15.08847779,0.0001405,53.2166,215.1788,77.541,282.574,0.00030096,4.506e-05,0.0,0 STARLINK-5147,1 53985U 22125X   24077.76831240  .00004506  00000-0  30096-3 0  9999,2 53985  53.2166 215.1788 0001405  77.5410 282.5740 15.08847779 80474,6917.857,95.437,540.694,538.75,0.0
53985.0,STARLINK-5147,PAYLOAD,2024-03-18 18:17:09,15.0884179,0.0001628,53.2174,210.7183,70.7632,289.3536,7.3302e-05,8.79e-06,0.0,0 STARLINK-5147,1 53985U 22125X   24078.76191627  .00000879  00000-0  73302-4 0  9995,2 53985  53.2174 210.7183 0001628  70.7632 289.3536 15.08841790 80690,6917.875,95.437,540.866,538.614,0.0
53985.0,STARLINK-5147,PAYLOAD,2024-03-19 11:46:23,15.08847136,0.0001276,53.2147,207.4557,67.8759,292.2368,4.7567e-05,4.69e-06,0.0,0 STARLINK-5147,1 53985U 22125X   24079.49055240  .00000469  00000-0  47567-4 0  9995,2 53985  53.2147 207.4557 0001276  67.8759 292.2368 15.08847136 80735,6917.859,95.437,540.606,538.841,0.0
